{
  "type": "FeatureCollection",
  "features": [
    {
      "type": "Feature",
      "properties": {
        "norad_id": 35837,
        "name": "COSMOS 2251 DEB",
        "group": "cosmos-2251-debris",
        "lat": 53.633500461699896,
        "lon": -9.399279288038825,
        "alt_km": 708.9485619035268,
        "timestamp": "2025-12-20T22:39:11.021494+00:00",
        "meta_object_name": "COSMOS 2251 DEB",
        "meta_object_id": "1993-036ATK",
        "meta_epoch": "2025-12-20T04:59:29.154912",
        "meta_mean_motion": 13.63523619,
        "meta_eccentricity": 0.04220249,
        "meta_inclination": 73.7219,
        "meta_ra_of_asc_node": 195.2026,
        "meta_arg_of_pericenter": 114.812,
        "meta_mean_anomaly": 356.3531,
        "meta_ephemeris_type": 0,
        "meta_classification_type": "U",
        "meta_norad_cat_id": 35837,
        "meta_element_set_no": 999,
        "meta_rev_at_epoch": 58078,
        "meta_bstar": 0.0020383632,
        "meta_mean_motion_dot": 2.925e-05,
        "meta_mean_motion_ddot": 0,
        "tle_line1": "1 35837U 93036ATK 25354.20797633  .00002925  00000+0  20384-2 0  9999",
        "tle_line2": "2 35837  73.7219 195.2026 0422024 114.8120 356.3531 13.63523619580786"
      },
      "geometry": {
        "type": "Point",
        "coordinates": [
          -9.399279288038825,
          53.633500461699896
        ]
      }
    },
    {
      "type": "Feature",
      "properties": {
        "norad_id": 35839,
        "name": "COSMOS 2251 DEB",
        "group": "cosmos-2251-debris",
        "lat": 36.613479204186284,
        "lon": -42.29714320328312,
        "alt_km": 390.9016905997323,
        "timestamp": "2025-12-20T22:39:11.021503+00:00",
        "meta_object_name": "COSMOS 2251 DEB",
        "meta_object_id": "1993-036ATM",
        "meta_epoch": "2025-12-18T21:09:02.023488",
        "meta_mean_motion": 15.5659062,
        "meta_eccentricity": 0.00051351,
        "meta_inclination": 74.2044,
        "meta_ra_of_asc_node": 310.0858,
        "meta_arg_of_pericenter": 137.0723,
        "meta_mean_anomaly": 223.0896,
        "meta_ephemeris_type": 0,
        "meta_classification_type": "U",
        "meta_norad_cat_id": 35839,
        "meta_element_set_no": 999,
        "meta_rev_at_epoch": 88663,
        "meta_bstar": 0.0047388387,
        "meta_mean_motion_dot": 0.00352469,
        "meta_mean_motion_ddot": 0,
        "tle_line1": "1 35839U 93036ATM 25352.88127342  .00352469  00000+0  47388-2 0  9991",
        "tle_line2": "2 35839  74.2044 310.0858 0005135 137.0723 223.0896 15.56590620886633"
      },
      "geometry": {
        "type": "Point",
        "coordinates": [
          -42.29714320328312,
          36.613479204186284
        ]
      }
    },
    {
      "type": "Feature",
      "properties": {
        "norad_id": 35840,
        "name": "COSMOS 2251 DEB",
        "group": "cosmos-2251-debris",
        "lat": -38.57501944436503,
        "lon": 129.6855579413701,
        "alt_km": 761.6949172956847,
        "timestamp": "2025-12-20T22:39:11.021512+00:00",
        "meta_object_name": "COSMOS 2251 DEB",
        "meta_object_id": "1993-036ATN",
        "meta_epoch": "2025-12-12T04:26:56.474304",
        "meta_mean_motion": 14.37821687,
        "meta_eccentricity": 0.01162768,
        "meta_inclination": 73.9307,
        "meta_ra_of_asc_node": 159.2062,
        "meta_arg_of_pericenter": 61.7798,
        "meta_mean_anomaly": 299.5037,
        "meta_ephemeris_type": 0,
        "meta_classification_type": "U",
        "meta_norad_cat_id": 35840,
        "meta_element_set_no": 999,
        "meta_rev_at_epoch": 85283,
        "meta_bstar": 0.0026691111,
        "meta_mean_motion_dot": 8.683e-05,
        "meta_mean_motion_ddot": 0,
        "tle_line1": "1 35840U 93036ATN 25346.18537586  .00008683  00000+0  26691-2 0  9994",
        "tle_line2": "2 35840  73.9307 159.2062 0116276  61.7798 299.5037 14.37821687852835"
      },
      "geometry": {
        "type": "Point",
        "coordinates": [
          129.6855579413701,
          -38.57501944436503
        ]
      }
    },
    {
      "type": "Feature",
      "properties": {
        "norad_id": 35883,
        "name": "COSMOS 2251 DEB",
        "group": "cosmos-2251-debris",
        "lat": -22.81868653488162,
        "lon": 47.67384438405987,
        "alt_km": 782.0157986073782,
        "timestamp": "2025-12-20T22:39:11.021521+00:00",
        "meta_object_name": "COSMOS 2251 DEB",
        "meta_object_id": "1993-036ATW",
        "meta_epoch": "2025-12-16T04:41:35.789568",
        "meta_mean_motion": 14.50615193,
        "meta_eccentricity": 0.00835028,
        "meta_inclination": 74.0253,
        "meta_ra_of_asc_node": 63.5249,
        "meta_arg_of_pericenter": 192.1269,
        "meta_mean_anomaly": 197.0315,
        "meta_ephemeris_type": 0,
        "meta_classification_type": "U",
        "meta_norad_cat_id": 35883,
        "meta_element_set_no": 999,
        "meta_rev_at_epoch": 62436,
        "meta_bstar": 0.00022216854,
        "meta_mean_motion_dot": 8.82e-06,
        "meta_mean_motion_ddot": 0,
        "tle_line1": "1 35883U 93036ATW 25350.19555312  .00000882  00000+0  22217-3 0  9998",
        "tle_line2": "2 35883  74.0253  63.5249 0083502 192.1269 197.0315 14.50615193624369"
      },
      "geometry": {
        "type": "Point",
        "coordinates": [
          47.67384438405987,
          -22.81868653488162
        ]
      }
    },
    {
      "type": "Feature",
      "properties": {
        "norad_id": 35884,
        "name": "COSMOS 2251 DEB",
        "group": "cosmos-2251-debris",
        "lat": 37.88344258372721,
        "lon": -25.936463026993405,
        "alt_km": 770.962389935491,
        "timestamp": "2025-12-20T22:39:11.021530+00:00",
        "meta_object_name": "COSMOS 2251 DEB",
        "meta_object_id": "1993-036ATX",
        "meta_epoch": "2025-12-16T07:19:09.379488",
        "meta_mean_motion": 14.25680751,
        "meta_eccentricity": 0.01084022,
        "meta_inclination": 73.9902,
        "meta_ra_of_asc_node": 329.5521,
        "meta_arg_of_pericenter": 115.5254,
        "meta_mean_anomaly": 245.7151,
        "meta_ephemeris_type": 0,
        "meta_classification_type": "U",
        "meta_norad_cat_id": 35884,
        "meta_element_set_no": 999,
        "meta_rev_at_epoch": 22408,
        "meta_bstar": 0.00087030299,
        "meta_mean_motion_dot": 2.171e-05,
        "meta_mean_motion_ddot": 0,
        "tle_line1": "1 35884U 93036ATX 25350.30496967  .00002171  00000+0  87030-3 0  9999",
        "tle_line2": "2 35884  73.9902 329.5521 0108402 115.5254 245.7151 14.25680751224085"
      },
      "geometry": {
        "type": "Point",
        "coordinates": [
          -25.936463026993405,
          37.88344258372721
        ]
      }
    },
    {
      "type": "Feature",
      "properties": {
        "norad_id": 35885,
        "name": "COSMOS 2251 DEB",
        "group": "cosmos-2251-debris",
        "lat": -0.7719366543513354,
        "lon": 99.91135889009416,
        "alt_km": 786.2277736847263,
        "timestamp": "2025-12-20T22:39:11.021540+00:00",
        "meta_object_name": "COSMOS 2251 DEB",
        "meta_object_id": "1993-036ATY",
        "meta_epoch": "2025-12-20T03:26:35.075328",
        "meta_mean_motion": 14.37533369,
        "meta_eccentricity": 0.00236117,
        "meta_inclination": 74.0287,
        "meta_ra_of_asc_node": 281.1634,
        "meta_arg_of_pericenter": 0.0497,
        "meta_mean_anomaly": 0.0654,
        "meta_ephemeris_type": 0,
        "meta_classification_type": "U",
        "meta_norad_cat_id": 35885,
        "meta_element_set_no": 999,
        "meta_rev_at_epoch": 65122,
        "meta_bstar": 0.00021713075,
        "meta_mean_motion_dot": 6.26e-06,
        "meta_mean_motion_ddot": 0,
        "tle_line1": "1 35885U 93036ATY 25354.14346152  .00000626  00000+0  21713-3 0  9995",
        "tle_line2": "2 35885  74.0287 281.1634 0023611   0.0497   0.0654 14.37533369651222"
      },
      "geometry": {
        "type": "Point",
        "coordinates": [
          99.91135889009416,
          -0.7719366543513354
        ]
      }
    },
    {
      "type": "Feature",
      "properties": {
        "norad_id": 35888,
        "name": "COSMOS 2251 DEB",
        "group": "cosmos-2251-debris",
        "lat": 26.679212318056308,
        "lon": -10.677248819212865,
        "alt_km": 692.7127673543246,
        "timestamp": "2025-12-20T22:39:11.021549+00:00",
        "meta_object_name": "COSMOS 2251 DEB",
        "meta_object_id": "1993-036AUB",
        "meta_epoch": "2025-12-19T16:53:26.890080",
        "meta_mean_motion": 14.58341015,
        "meta_eccentricity": 0.00479832,
        "meta_inclination": 74.0337,
        "meta_ra_of_asc_node": 343.4108,
        "meta_arg_of_pericenter": 113.3266,
        "meta_mean_anomaly": 247.2958,
        "meta_ephemeris_type": 0,
        "meta_classification_type": "U",
        "meta_norad_cat_id": 35888,
        "meta_element_set_no": 999,
        "meta_rev_at_epoch": 86375,
        "meta_bstar": 0.00026393359,
        "meta_mean_motion_dot": 1.211e-05,
        "meta_mean_motion_ddot": 0,
        "tle_line1": "1 35888U 93036AUB 25353.70378345  .00001211  00000+0  26393-3 0  9998",
        "tle_line2": "2 35888  74.0337 343.4108 0047983 113.3266 247.2958 14.58341015863752"
      },
      "geometry": {
        "type": "Point",
        "coordinates": [
          -10.677248819212865,
          26.679212318056308
        ]
      }
    }
  ]
}